EUTELSAT 8 WEST B       
1 40875U 15039B   25300.40015793 -.00000054  00000+0  00000+0 0  9999
2 40875   0.0698   5.4098 0003969 215.7567 310.9033  1.00271758 37320
EUTELSAT 9B             
1 41310U 16005A   25300.16622285  .00000074  00000+0  00000+0 0  9992
2 41310   0.0751  72.9132 0003809 171.4579 220.2765  1.00273429 35787
EUTELSAT 65 WEST A      
1 41382U 16014A   25300.51995183 -.00000265  00000+0  00000+0 0  9993
2 41382   0.0669  41.6184 0002249 179.3921 297.1406  1.00273069 35201
EUTELSAT 117 WEST B     
1 41589U 16038B   25300.45172434  .00000000  00000+0  00000+0 0  9993
2 41589   0.0103 102.3913 0000319 179.0433 160.2600  1.00271163 34320
EUTELSAT 172B           
1 42741U 17029B   25300.54379784  .00000006  00000+0  00000+0 0  9998
2 42741   0.0174 182.2981 0000317 235.8824 345.7789  1.00271572 31390
EUTELSAT 7C             
1 44334U 19034B   25300.16622285  .00000060  00000+0  00000+0 0  9991
2 44334   0.0667 185.4864 0003125   9.1226 268.0326  1.00271405  4490
EUTELSAT 5 WEST B       
1 44624U 19067A   25300.30531096 -.00000031  00000+0  00000+0 0  9993
2 44624   0.0678   2.5522 0003090 211.8035 286.5142  1.00271132 22101
EUTELSAT KONNECT        
1 45027U 20005B   25300.15580503  .00000061  00000+0  00000+0 0  9997
2 45027   0.0668  89.4206 0001164 164.8455 204.8182  1.00269201 21991
